     2.11           G: GLONASS NAV DATA                     RINEX VERSION / TYPE
teqc  2019Feb25                         20210102 00:06:46UTCPGM / RUN BY / DATE
Linux 2.4.21-27.ELsmp|Opteron|gcc|Linux 64|=+               COMMENT
GN-RINEX 1.3        Geo++ GmbH          31-DEC-20 23:59     COMMENT
gfzrnx-1.13-7761    FILE MERGE          20210101 010301 UTC COMMENT
    18                                                      LEAP SECONDS
                                                            END OF HEADER
 1 20 12 31 23 45  0.0 7.282570004460D-05 0.000000000000D+00 7.380000000000D+04
   -1.488799804690D+03-2.196182250980D+00 3.725290298460D-09 0.000000000000D+00
    1.292880712890D+04-2.049269676210D+00 0.000000000000D+00 1.000000000000D+00
    2.193169775390D+04 1.059645652770D+00-9.313225746150D-10 0.000000000000D+00
 1 21  1  1  0 15  0.0 7.282663136720D-05 0.000000000000D+00 7.560000000000D+04
   -5.823143066410D+03-2.584109306340D+00 1.862645149230D-09 0.000000000000D+00
    9.438300292970D+03-1.792398452760D+00 0.000000000000D+00 1.000000000000D+00
    2.296619091800D+04 8.235454559330D-02-1.862645149230D-09 0.000000000000D+00
 1 21  1  1  0 45  0.0 7.282756268980D-05 0.000000000000D+00 7.740000000000D+04
   -1.064200878910D+04-2.723995208740D+00 0.000000000000D+00 0.000000000000D+00
    6.583793945310D+03-1.357075691220D+00 0.000000000000D+00 1.000000000000D+00
    2.222444970700D+04-9.011297225950D-01-2.793967723850D-09 0.000000000000D+00
 2 20 12 31 23 45  0.0 4.609869793060D-04 1.818989403550D-12 7.380000000000D+04
    1.520543261720D+04-5.929164886470D-01 4.656612873080D-09 0.000000000000D+00
    1.922517089840D+04-7.990379333500D-01 0.000000000000D+00-4.000000000000D+00
    7.209519531250D+03 3.391310691830D+00 1.862645149230D-09 0.000000000000D+00
 2 21  1  1  0 15  0.0 4.609907045960D-04 1.818989403550D-12 7.560000000000D+04
    1.347225683590D+04-1.338981628420D+00 4.656612873080D-09 0.000000000000D+00
    1.742273730470D+04-1.160789489750D+00 0.000000000000D+00-4.000000000000D+00
    1.295806103520D+04 2.954726219180D+00 9.313225746150D-10 0.000000000000D+00
 3 20 12 31 23 45  0.0 2.833176404240D-05 0.000000000000D+00 8.589000000000D+04
    1.997111425780D+04 1.119024276730D+00 2.793967723850D-09 0.000000000000D+00
    1.218920263670D+04 8.536128997800D-01 0.000000000000D+00 5.000000000000D+00
   -1.019199707030D+04 3.197331428530D+00 3.725290298460D-09 0.000000000000D+00
 3 21  1  1  0 15  0.0 2.833362668750D-05 9.094947017730D-13 7.560000000000D+04
    2.151182568360D+04 5.557718276980D-01 3.725290298460D-09 0.000000000000D+00
    1.312054052730D+04 2.008199691770D-01 0.000000000000D+00 5.000000000000D+00
   -4.117687011720D+03 3.508099555970D+00 3.725290298460D-09 0.000000000000D+00
